STARLINK-2071
1 47361U 21005N   26092.80465992  .00046368  00000+0  30829-2 0  9991
2 47361  53.0548 283.3571 0001168 327.6085  32.4832 15.06741096287091
